{
  "type": "FeatureCollection",
  "features": [
    {
      "type": "Feature",
      "properties": {
        "norad_id": 33913,
        "name": "COSMOS 2251 DEB",
        "group": "cosmos-2251-debris",
        "lat": -22.13113588461173,
        "lon": 167.44905781039176,
        "alt_km": 718.992601454288,
        "timestamp": "2025-12-17T19:34:08.430690+00:00",
        "meta_object_name": "COSMOS 2251 DEB",
        "meta_object_id": "1993-036DS",
        "meta_epoch": "2025-12-16T18:53:11.445792",
        "meta_mean_motion": 14.48502998,
        "meta_eccentricity": 0.00481593,
        "meta_inclination": 74.0325,
        "meta_ra_of_asc_node": 176.0622,
        "meta_arg_of_pericenter": 277.8729,
        "meta_mean_anomaly": 97.9587,
        "meta_ephemeris_type": 0,
        "meta_classification_type": "U",
        "meta_norad_cat_id": 33913,
        "meta_element_set_no": 999,
        "meta_rev_at_epoch": 88516,
        "meta_bstar": 0.00043490616,
        "meta_mean_motion_dot": 1.628e-05,
        "meta_mean_motion_ddot": 0,
        "tle_line1": "1 33913U 93036DS  25350.78693803  .00001628  00000+0  43491-3 0  9999",
        "tle_line2": "2 33913  74.0325 176.0622 0048159 277.8729  97.9587 14.48502998885168"
      },
      "geometry": {
        "type": "Point",
        "coordinates": [
          167.44905781039176,
          -22.13113588461173
        ]
      }
    },
    {
      "type": "Feature",
      "properties": {
        "norad_id": 33914,
        "name": "COSMOS 2251 DEB",
        "group": "cosmos-2251-debris",
        "lat": -16.17565182049345,
        "lon": 1.9852671243010946,
        "alt_km": 1120.4091375879543,
        "timestamp": "2025-12-17T19:34:08.430700+00:00",
        "meta_object_name": "COSMOS 2251 DEB",
        "meta_object_id": "1993-036DT",
        "meta_epoch": "2025-12-17T07:27:36.270144",
        "meta_mean_motion": 13.71987759,
        "meta_eccentricity": 0.03009349,
        "meta_inclination": 74.0912,
        "meta_ra_of_asc_node": 7.5617,
        "meta_arg_of_pericenter": 109.4888,
        "meta_mean_anomaly": 265.5854,
        "meta_ephemeris_type": 0,
        "meta_classification_type": "U",
        "meta_norad_cat_id": 33914,
        "meta_element_set_no": 999,
        "meta_rev_at_epoch": 84144,
        "meta_bstar": 0.00025013891,
        "meta_mean_motion_dot": 2.94e-06,
        "meta_mean_motion_ddot": 0,
        "tle_line1": "1 33914U 93036DT  25351.31083646  .00000294  00000+0  25014-3 0  9997",
        "tle_line2": "2 33914  74.0912   7.5617 0300934 109.4888 265.5854 13.71987759841441"
      },
      "geometry": {
        "type": "Point",
        "coordinates": [
          1.9852671243010946,
          -16.17565182049345
        ]
      }
    },
    {
      "type": "Feature",
      "properties": {
        "norad_id": 33915,
        "name": "COSMOS 2251 DEB",
        "group": "cosmos-2251-debris",
        "lat": -0.808048539818007,
        "lon": -154.96325706447877,
        "alt_km": 744.9990234514225,
        "timestamp": "2025-12-17T19:34:08.430710+00:00",
        "meta_object_name": "COSMOS 2251 DEB",
        "meta_object_id": "1993-036DU",
        "meta_epoch": "2025-12-17T08:46:31.649376",
        "meta_mean_motion": 14.35093684,
        "meta_eccentricity": 0.01041907,
        "meta_inclination": 74.0435,
        "meta_ra_of_asc_node": 25.6294,
        "meta_arg_of_pericenter": 116.9436,
        "meta_mean_anomaly": 260.1756,
        "meta_ephemeris_type": 0,
        "meta_classification_type": "U",
        "meta_norad_cat_id": 33915,
        "meta_element_set_no": 999,
        "meta_rev_at_epoch": 87824,
        "meta_bstar": 0.00030088188,
        "meta_mean_motion_dot": 8.87e-06,
        "meta_mean_motion_ddot": 0,
        "tle_line1": "1 33915U 93036DU  25351.36564409  .00000887  00000+0  30088-3 0  9999",
        "tle_line2": "2 33915  74.0435  25.6294 0104190 116.9436 260.1756 14.35093684878248"
      },
      "geometry": {
        "type": "Point",
        "coordinates": [
          -154.96325706447877,
          -0.808048539818007
        ]
      }
    },
    {
      "type": "Feature",
      "properties": {
        "norad_id": 33916,
        "name": "COSMOS 2251 DEB",
        "group": "cosmos-2251-debris",
        "lat": -9.355211495993633,
        "lon": -145.05080287843913,
        "alt_km": 774.5119651230798,
        "timestamp": "2025-12-17T19:34:08.430720+00:00",
        "meta_object_name": "COSMOS 2251 DEB",
        "meta_object_id": "1993-036DV",
        "meta_epoch": "2025-12-17T06:44:00.264768",
        "meta_mean_motion": 13.68619352,
        "meta_eccentricity": 0.03251535,
        "meta_inclination": 74.0525,
        "meta_ra_of_asc_node": 33.1276,
        "meta_arg_of_pericenter": 204.305,
        "meta_mean_anomaly": 232.1154,
        "meta_ephemeris_type": 0,
        "meta_classification_type": "U",
        "meta_norad_cat_id": 33916,
        "meta_element_set_no": 999,
        "meta_rev_at_epoch": 83953,
        "meta_bstar": 0.00035029239,
        "meta_mean_motion_dot": 4.12e-06,
        "meta_mean_motion_ddot": 0,
        "tle_line1": "1 33916U 93036DV  25351.28055862  .00000412  00000+0  35029-3 0  9993",
        "tle_line2": "2 33916  74.0525  33.1276 0325153 204.3050 232.1154 13.68619352839532"
      },
      "geometry": {
        "type": "Point",
        "coordinates": [
          -145.05080287843913,
          -9.355211495993633
        ]
      }
    },
    {
      "type": "Feature",
      "properties": {
        "norad_id": 33917,
        "name": "COSMOS 2251 DEB",
        "group": "cosmos-2251-debris",
        "lat": -69.23942418664807,
        "lon": 65.34631922809847,
        "alt_km": 916.6144237545714,
        "timestamp": "2025-12-17T19:34:08.430730+00:00",
        "meta_object_name": "COSMOS 2251 DEB",
        "meta_object_id": "1993-036DW",
        "meta_epoch": "2025-12-17T07:40:30.750240",
        "meta_mean_motion": 13.69368632,
        "meta_eccentricity": 0.0331309,
        "meta_inclination": 74.1071,
        "meta_ra_of_asc_node": 114.8837,
        "meta_arg_of_pericenter": 214.8475,
        "meta_mean_anomaly": 143.055,
        "meta_ephemeris_type": 0,
        "meta_classification_type": "U",
        "meta_norad_cat_id": 33917,
        "meta_element_set_no": 999,
        "meta_rev_at_epoch": 83796,
        "meta_bstar": 0.00068021135,
        "meta_mean_motion_dot": 8.46e-06,
        "meta_mean_motion_ddot": 0,
        "tle_line1": "1 33917U 93036DW  25351.31980035  .00000846  00000+0  68021-3 0  9996",
        "tle_line2": "2 33917  74.1071 114.8837 0331309 214.8475 143.0550 13.69368632837965"
      },
      "geometry": {
        "type": "Point",
        "coordinates": [
          65.34631922809847,
          -69.23942418664807
        ]
      }
    },
    {
      "type": "Feature",
      "properties": {
        "norad_id": 33920,
        "name": "COSMOS 2251 DEB",
        "group": "cosmos-2251-debris",
        "lat": -5.460179542645556,
        "lon": 110.34701111250413,
        "alt_km": 710.4825052231854,
        "timestamp": "2025-12-17T19:34:08.430740+00:00",
        "meta_object_name": "COSMOS 2251 DEB",
        "meta_object_id": "1993-036DZ",
        "meta_epoch": "2025-12-17T05:32:46.607136",
        "meta_mean_motion": 14.58349285,
        "meta_eccentricity": 0.00380878,
        "meta_inclination": 74.0614,
        "meta_ra_of_asc_node": 289.8915,
        "meta_arg_of_pericenter": 295.8036,
        "meta_mean_anomaly": 63.9201,
        "meta_ephemeris_type": 0,
        "meta_classification_type": "U",
        "meta_norad_cat_id": 33920,
        "meta_element_set_no": 999,
        "meta_rev_at_epoch": 88180,
        "meta_bstar": 0.0014019237,
        "meta_mean_motion_dot": 6.531e-05,
        "meta_mean_motion_ddot": 0,
        "tle_line1": "1 33920U 93036DZ  25351.23109499  .00006531  00000+0  14019-2 0  9992",
        "tle_line2": "2 33920  74.0614 289.8915 0038087 295.8036  63.9201 14.58349285881807"
      },
      "geometry": {
        "type": "Point",
        "coordinates": [
          110.34701111250413,
          -5.460179542645556
        ]
      }
    },
    {
      "type": "Feature",
      "properties": {
        "norad_id": 33922,
        "name": "COSMOS 2251 DEB",
        "group": "cosmos-2251-debris",
        "lat": 12.465814541760615,
        "lon": -45.37912971726922,
        "alt_km": 725.5381237920474,
        "timestamp": "2025-12-17T19:34:08.430750+00:00",
        "meta_object_name": "COSMOS 2251 DEB",
        "meta_object_id": "1993-036EB",
        "meta_epoch": "2025-12-17T02:47:31.253280",
        "meta_mean_motion": 14.49523912,
        "meta_eccentricity": 0.00232445,
        "meta_inclination": 74.0466,
        "meta_ra_of_asc_node": 139.5568,
        "meta_arg_of_pericenter": 249.7289,
        "meta_mean_anomaly": 231.1354,
        "meta_ephemeris_type": 0,
        "meta_classification_type": "U",
        "meta_norad_cat_id": 33922,
        "meta_element_set_no": 999,
        "meta_rev_at_epoch": 88641,
        "meta_bstar": 0.00039385524,
        "meta_mean_motion_dot": 1.488e-05,
        "meta_mean_motion_ddot": 0,
        "tle_line1": "1 33922U 93036EB  25351.11633395  .00001488  00000+0  39386-3 0  9999",
        "tle_line2": "2 33922  74.0466 139.5568 0023244 249.7289 231.1354 14.49523912886417"
      },
      "geometry": {
        "type": "Point",
        "coordinates": [
          -45.37912971726922,
          12.465814541760615
        ]
      }
    }
  ]
}